IRIDIUM 159             
1 43578U 18061K   24070.42599937  .00000038  00000+0  63753-5 0  9993
2 43578  86.3961  43.0401 0002128  84.5748 275.5691 14.34217182294590
IRIDIUM 180             
1 43922U 19002A   24070.28596131  .00000413  00000+0  14045-3 0  9994
2 43922  86.4017 340.0196 0002163  83.1891 276.9551 14.34221317270184
IRIDIUM 176             
1 43923U 19002B   24070.22456836  .00001521  00000+0  23704-3 0  9999
2 43923  86.6145 340.0731 0002658  83.9985 276.1535 14.72306989277288
IRIDIUM 168             
1 43924U 19002C   24070.48891603  .00000306  00000+0  10224-3 0  9996
2 43924  86.4020 339.9887 0002072  82.6904 277.4527 14.34220941270194
IRIDIUM 173             
1 43925U 19002D   24070.47622684  .00000406  00000+0  13785-3 0  9993
2 43925  86.4016 339.9168 0002122  83.8495 276.2943 14.34220924270174
IRIDIUM 169             
1 43926U 19002E   24070.56481784  .00000523  00000+0  16449-3 0  9998
2 43926  86.4278  11.4675 0002720 144.6346 215.5033 14.38617844271098
IRIDIUM 172             
1 43927U 19002F   24070.26058822  .00000441  00000+0  15042-3 0  9996
2 43927  86.4016 340.0121 0002241  83.7494 276.3957 14.34217257270157
IRIDIUM 175             
1 43928U 19002G   24070.42268208  .00001341  00000+0  20843-3 0  9991
2 43928  86.1522 318.7232 0002292  85.4727 274.6751 14.72289936277308
